CCSDS_OMM_VERS = 2.0
CREATION_DATE  = 
ORIGINATOR     = 

OBJECT_NAME    = STARLINK-36265
OBJECT_ID      = 2025-304S
CENTER_NAME    = EARTH
REF_FRAME      = TEME
TIME_SYSTEM    = UTC
MEAN_ELEMENT_THEORY = SGP/SGP4

EPOCH          = 2026-01-16T06:22:46.917984
MEAN_MOTION    = 15.42743552
ECCENTRICITY   = .00032534
INCLINATION    = 70.0005
RA_OF_ASC_NODE = 311.3756
ARG_OF_PERICENTER = 269.1987
MEAN_ANOMALY   = 90.8822

EPHEMERIS_TYPE = 0
CLASSIFICATION_TYPE = U
NORAD_CAT_ID   = 67208
ELEMENT_SET_NO = 999
REV_AT_EPOCH   = 591
BSTAR          = .8442696E-3
MEAN_MOTION_DOT = .37041E-3
MEAN_MOTION_DDOT = 0

CCSDS_OMM_VERS = 2.0
CREATION_DATE  = 
ORIGINATOR     = 

OBJECT_NAME    = STARLINK-36226
OBJECT_ID      = 2025-304T
CENTER_NAME    = EARTH
REF_FRAME      = TEME
TIME_SYSTEM    = UTC
MEAN_ELEMENT_THEORY = SGP/SGP4

EPOCH          = 2026-01-16T06:11:06.583776
MEAN_MOTION    = 15.42745233
ECCENTRICITY   = .0003373
INCLINATION    = 70.0008
RA_OF_ASC_NODE = 311.3463
ARG_OF_PERICENTER = 264.6098
MEAN_ANOMALY   = 95.4699

EPHEMERIS_TYPE = 0
CLASSIFICATION_TYPE = U
NORAD_CAT_ID   = 67209
ELEMENT_SET_NO = 999
REV_AT_EPOCH   = 591
BSTAR          = .80790626E-3
MEAN_MOTION_DOT = .35434E-3
MEAN_MOTION_DDOT = 0

CCSDS_OMM_VERS = 2.0
CREATION_DATE  = 
ORIGINATOR     = 

OBJECT_NAME    = STARLINK-36173
OBJECT_ID      = 2025-304U
CENTER_NAME    = EARTH
REF_FRAME      = TEME
TIME_SYSTEM    = UTC
MEAN_ELEMENT_THEORY = SGP/SGP4

EPOCH          = 2026-01-16T05:59:10.958496
MEAN_MOTION    = 15.42740466
ECCENTRICITY   = .00028076
INCLINATION    = 70.0008
RA_OF_ASC_NODE = 311.3160
ARG_OF_PERICENTER = 267.7697
MEAN_ANOMALY   = 92.3163

EPHEMERIS_TYPE = 0
CLASSIFICATION_TYPE = U
NORAD_CAT_ID   = 67210
ELEMENT_SET_NO = 999
REV_AT_EPOCH   = 591
BSTAR          = .63504015E-3
MEAN_MOTION_DOT = .27787E-3
MEAN_MOTION_DDOT = 0

CCSDS_OMM_VERS = 2.0
CREATION_DATE  = 
ORIGINATOR     = 

OBJECT_NAME    = STARLINK-36280
OBJECT_ID      = 2025-304V
CENTER_NAME    = EARTH
REF_FRAME      = TEME
TIME_SYSTEM    = UTC
MEAN_ELEMENT_THEORY = SGP/SGP4

EPOCH          = 2026-01-16T05:53:28.512096
MEAN_MOTION    = 15.42740855
ECCENTRICITY   = .00029883
INCLINATION    = 70.0006
RA_OF_ASC_NODE = 311.3013
ARG_OF_PERICENTER = 263.8958
MEAN_ANOMALY   = 96.1884

EPHEMERIS_TYPE = 0
CLASSIFICATION_TYPE = U
NORAD_CAT_ID   = 67211
ELEMENT_SET_NO = 999
REV_AT_EPOCH   = 591
BSTAR          = .79076912E-3
MEAN_MOTION_DOT = .3467E-3
MEAN_MOTION_DDOT = 0

CCSDS_OMM_VERS = 2.0
CREATION_DATE  = 
ORIGINATOR     = 

OBJECT_NAME    = STARLINK-36213
OBJECT_ID      = 2025-304W
CENTER_NAME    = EARTH
REF_FRAME      = TEME
TIME_SYSTEM    = UTC
MEAN_ELEMENT_THEORY = SGP/SGP4

EPOCH          = 2026-01-16T05:47:46.082112
MEAN_MOTION    = 15.42738996
ECCENTRICITY   = .00031549
INCLINATION    = 70.0005
RA_OF_ASC_NODE = 311.2872
ARG_OF_PERICENTER = 269.5318
MEAN_ANOMALY   = 90.5502

EPHEMERIS_TYPE = 0
CLASSIFICATION_TYPE = U
NORAD_CAT_ID   = 67212
ELEMENT_SET_NO = 999
REV_AT_EPOCH   = 591
BSTAR          = .6662684E-3
MEAN_MOTION_DOT = .29165E-3
MEAN_MOTION_DDOT = 0

CCSDS_OMM_VERS = 2.0
CREATION_DATE  = 
ORIGINATOR     = 

OBJECT_NAME    = STARLINK-36199
OBJECT_ID      = 2025-304X
CENTER_NAME    = EARTH
REF_FRAME      = TEME
TIME_SYSTEM    = UTC
MEAN_ELEMENT_THEORY = SGP/SGP4

EPOCH          = 2026-01-16T06:00:00.999648
MEAN_MOTION    = 15.42668717
ECCENTRICITY   = .00032564
INCLINATION    = 70.0004
RA_OF_ASC_NODE = 311.2126
ARG_OF_PERICENTER = 276.5970
MEAN_ANOMALY   = 175.7268

EPHEMERIS_TYPE = 0
CLASSIFICATION_TYPE = U
NORAD_CAT_ID   = 67213
ELEMENT_SET_NO = 999
REV_AT_EPOCH   = 601
BSTAR          = .16878978E-2
MEAN_MOTION_DOT = .74375E-3
MEAN_MOTION_DDOT = 0

CCSDS_OMM_VERS = 2.0
CREATION_DATE  = 
ORIGINATOR     = 

OBJECT_NAME    = STARLINK-36203
OBJECT_ID      = 2025-304Y
CENTER_NAME    = EARTH
REF_FRAME      = TEME
TIME_SYSTEM    = UTC
MEAN_ELEMENT_THEORY = SGP/SGP4

EPOCH          = 2026-01-16T06:00:00.999648
MEAN_MOTION    = 15.42678252
ECCENTRICITY   = .00028332
INCLINATION    = 70.0007
RA_OF_ASC_NODE = 311.1866
ARG_OF_PERICENTER = 277.6955
MEAN_ANOMALY   = 197.6032

EPHEMERIS_TYPE = 0
CLASSIFICATION_TYPE = U
NORAD_CAT_ID   = 67214
ELEMENT_SET_NO = 999
REV_AT_EPOCH   = 601
BSTAR          = .16252633E-2
MEAN_MOTION_DOT = .71604E-3
MEAN_MOTION_DDOT = 0

CCSDS_OMM_VERS = 2.0
CREATION_DATE  = 
ORIGINATOR     = 

OBJECT_NAME    = STARLINK-36221
OBJECT_ID      = 2025-304Z
CENTER_NAME    = EARTH
REF_FRAME      = TEME
TIME_SYSTEM    = UTC
MEAN_ELEMENT_THEORY = SGP/SGP4

EPOCH          = 2026-01-16T06:00:00.999648
MEAN_MOTION    = 15.42668607
ECCENTRICITY   = .00030788
INCLINATION    = 70.0008
RA_OF_ASC_NODE = 311.1618
ARG_OF_PERICENTER = 282.2946
MEAN_ANOMALY   = 215.0206

EPHEMERIS_TYPE = 0
CLASSIFICATION_TYPE = U
NORAD_CAT_ID   = 67215
ELEMENT_SET_NO = 999
REV_AT_EPOCH   = 601
BSTAR          = .16755742E-2
MEAN_MOTION_DOT = .73824E-3
MEAN_MOTION_DDOT = 0

CCSDS_OMM_VERS = 2.0
CREATION_DATE  = 
ORIGINATOR     = 

OBJECT_NAME    = STARLINK-36212
OBJECT_ID      = 2025-304AA
CENTER_NAME    = EARTH
REF_FRAME      = TEME
TIME_SYSTEM    = UTC
MEAN_ELEMENT_THEORY = SGP/SGP4

EPOCH          = 2026-01-16T06:00:00.999648
MEAN_MOTION    = 15.42679487
ECCENTRICITY   = .00031386
INCLINATION    = 70.0008
RA_OF_ASC_NODE = 311.1353
ARG_OF_PERICENTER = 274.2775
MEAN_ANOMALY   = 246.0255

EPHEMERIS_TYPE = 0
CLASSIFICATION_TYPE = U
NORAD_CAT_ID   = 67216
ELEMENT_SET_NO = 999
REV_AT_EPOCH   = 601
BSTAR          = .16327812E-2
MEAN_MOTION_DOT = .71944E-3
MEAN_MOTION_DDOT = 0

CCSDS_OMM_VERS = 2.0
CREATION_DATE  = 
ORIGINATOR     = 

OBJECT_NAME    = STARLINK-36216
OBJECT_ID      = 2025-304AB
CENTER_NAME    = EARTH
REF_FRAME      = TEME
TIME_SYSTEM    = UTC
MEAN_ELEMENT_THEORY = SGP/SGP4

EPOCH          = 2026-01-16T06:00:00.999648
MEAN_MOTION    = 15.42666276
ECCENTRICITY   = .00032422
INCLINATION    = 70.0008
RA_OF_ASC_NODE = 311.1087
ARG_OF_PERICENTER = 270.4998
MEAN_ANOMALY   = 271.8101

EPHEMERIS_TYPE = 0
CLASSIFICATION_TYPE = U
NORAD_CAT_ID   = 67217
ELEMENT_SET_NO = 999
REV_AT_EPOCH   = 601
BSTAR          = .1960894E-2
MEAN_MOTION_DOT = .86558E-3
MEAN_MOTION_DDOT = 0

CCSDS_OMM_VERS = 2.0
CREATION_DATE  = 
ORIGINATOR     = 

OBJECT_NAME    = STARLINK-36211
OBJECT_ID      = 2025-304AC
CENTER_NAME    = EARTH
REF_FRAME      = TEME
TIME_SYSTEM    = UTC
MEAN_ELEMENT_THEORY = SGP/SGP4

EPOCH          = 2026-01-16T06:00:00.999648
MEAN_MOTION    = 15.44965875
ECCENTRICITY   = .00027074
INCLINATION    = 70.0005
RA_OF_ASC_NODE = 311.0824
ARG_OF_PERICENTER = 274.8481
MEAN_ANOMALY   = 288.8838

EPHEMERIS_TYPE = 0
CLASSIFICATION_TYPE = U
NORAD_CAT_ID   = 67218
ELEMENT_SET_NO = 999
REV_AT_EPOCH   = 598
BSTAR          = -.62126147E-1
MEAN_MOTION_DOT = -.2588464E-1
MEAN_MOTION_DDOT = 0

CCSDS_OMM_VERS = 2.0
CREATION_DATE  = 
ORIGINATOR     = 

OBJECT_NAME    = DISKSAT C
OBJECT_ID      = 2025-305A
CENTER_NAME    = EARTH
REF_FRAME      = TEME
TIME_SYSTEM    = UTC
MEAN_ELEMENT_THEORY = SGP/SGP4

EPOCH          = 2026-01-16T02:39:43.196832
MEAN_MOTION    = 15.06421128
ECCENTRICITY   = .00017217
INCLINATION    = 45.0016
RA_OF_ASC_NODE = 168.8898
ARG_OF_PERICENTER = 37.0340
MEAN_ANOMALY   = 323.0653

EPHEMERIS_TYPE = 0
CLASSIFICATION_TYPE = U
NORAD_CAT_ID   = 67219
ELEMENT_SET_NO = 999
REV_AT_EPOCH   = 436
BSTAR          = .45445873E-3
MEAN_MOTION_DOT = .6571E-4
MEAN_MOTION_DDOT = 0

