STARLINK-36265          
1 67208U 25304S   26016.26582081  .00037041  00000+0  84427-3 0  9996
2 67208  70.0005 311.3756 0003253 269.1987  90.8822 15.42743552  5910
STARLINK-36226          
1 67209U 25304T   26016.25771509  .00035434  00000+0  80791-3 0  9995
2 67209  70.0008 311.3463 0003373 264.6098  95.4699 15.42745233  5916
STARLINK-36173          
1 67210U 25304U   26016.24943239  .00027787  00000+0  63504-3 0  9992
2 67210  70.0008 311.3160 0002807 267.7697  92.3163 15.42740466  5917
STARLINK-36280          
1 67211U 25304V   26016.24546889  .00034670  00000+0  79077-3 0  9994
2 67211  70.0006 311.3013 0002988 263.8958  96.1884 15.42740855  5914
STARLINK-36213          
1 67212U 25304W   26016.24150558  .00029165  00000+0  66627-3 0  9999
2 67212  70.0005 311.2872 0003154 269.5318  90.5502 15.42738996  5913
STARLINK-36199          
1 67213U 25304X   26016.25001157  .00074375  00000+0  16879-2 0  9997
2 67213  70.0004 311.2126 0003256 276.5970 175.7268 15.42668717  6010
STARLINK-36203          
1 67214U 25304Y   26016.25001157  .00071604  00000+0  16253-2 0  9996
2 67214  70.0007 311.1866 0002833 277.6955 197.6032 15.42678252  6016
STARLINK-36221          
1 67215U 25304Z   26016.25001157  .00073824  00000+0  16756-2 0  9991
2 67215  70.0008 311.1618 0003078 282.2946 215.0206 15.42668607  6018
STARLINK-36212          
1 67216U 25304AA  26016.25001157  .00071944  00000+0  16328-2 0  9998
2 67216  70.0008 311.1353 0003138 274.2775 246.0255 15.42679487  6019
STARLINK-36216          
1 67217U 25304AB  26016.25001157  .00086558  00000+0  19609-2 0  9991
2 67217  70.0008 311.1087 0003242 270.4998 271.8101 15.42666276  6013
STARLINK-36211          
1 67218U 25304AC  26016.25001157 -.02588464  00000+0 -62126-1 0  9990
2 67218  70.0005 311.0824 0002707 274.8481 288.8838 15.44965875  5988
DISKSAT C               
1 67219U 25305A   26016.11091663  .00006571  00000+0  45446-3 0  9996
2 67219  45.0016 168.8898 0001721  37.0340 323.0653 15.06421128  4364
